NORAD_CAT_ID,OBJECT_NAME,OBJECT_TYPE,EPOCH,MEAN_MOTION,ECCENTRICITY,INCLINATION,RA_OF_ASC_NODE,ARG_OF_PERICENTER,MEAN_ANOMALY,BSTAR,MEAN_MOTION_DOT,MEAN_MOTION_DDOT,TLE_LINE0,TLE_LINE1,TLE_LINE2,SEMIMAJOR_AXIS,PERIOD,APOGEE,PERIGEE,DECAYED
51135.0,STARLINK-3363,PAYLOAD,2024-03-08 00:53:17,15.0884167,0.0001583,53.2204,343.6037,94.597,265.5203,5.0103e-05,5.1e-06,0.0,0 STARLINK-3363,1 51135U 22005AH  24068.03701237  .00000510  00000-0  50103-4 0  9996,2 51135  53.2204 343.6037 0001583  94.5970 265.5203 15.08841670119396,6917.875,95.437,540.835,538.645,0.0
51135.0,STARLINK-3363,PAYLOAD,2024-03-08 04:04:04,15.08843535,0.0001546,53.2204,343.009,92.8927,267.2242,4.5314e-05,4.33e-06,0.0,0 STARLINK-3363,1 51135U 22005AH  24068.16949077  .00000433  00000-0  45314-4 0  9998,2 51135  53.2204 343.0090 0001546  92.8927 267.2242 15.08843535118293,6917.87,95.437,540.804,538.665,0.0
51135.0,STARLINK-3363,PAYLOAD,2024-03-09 03:54:51,15.0883739,0.0001345,53.2191,338.551,101.365,258.7493,2.0723e-05,4.2e-07,0.0,0 STARLINK-3363,1 51135U 22005AH  24069.16309644  .00000042  00000-0  20723-4 0  9992,2 51135  53.2191 338.5510 0001345 101.3650 258.7493 15.08837390119566,6917.888,95.438,540.684,538.823,0.0
51135.0,STARLINK-3363,PAYLOAD,2024-03-10 10:07:10,15.08846539,0.000149,53.2202,332.9044,79.1869,280.9291,7.9783e-05,9.82e-06,0.0,0 STARLINK-3363,1 51135U 22005AH  24070.42165002  .00000982  00000-0  79783-4 0  9994,2 51135  53.2202 332.9044 0001490  79.1869 280.9291 15.08846539119753,6917.86,95.437,540.756,538.695,0.0
51135.0,STARLINK-3363,PAYLOAD,2024-03-10 21:14:53,15.08834158,0.0001374,53.219,330.8237,99.654,260.4607,7.4218e-07,-2.76e-06,0.0,0 STARLINK-3363,1 51135U 22005AH  24070.88533991 -.00000276  00000-0  74218-6 0  9997,2 51135  53.2190 330.8237 0001374  99.6540 260.4607 15.08834158119820,6917.898,95.438,540.714,538.813,0.0
51135.0,STARLINK-3363,PAYLOAD,2024-03-10 22:50:16,15.08836207,0.0001391,53.219,330.5267,100.143,259.9719,-5.3565e-06,-3.73e-06,0.0,0 STARLINK-3363,1 51135U 22005AH  24070.95157889 -.00000373  00000-0 -53565-5 0  9993,2 51135  53.2190 330.5267 0001391 100.1430 259.9719 15.08836207118716,6917.892,95.438,540.719,538.795,0.0
51135.0,STARLINK-3363,PAYLOAD,2024-03-11 03:36:25,15.08842072,0.0001322,53.2185,329.6343,98.7083,261.4059,5.389e-05,5.7e-06,0.0,0 STARLINK-3363,1 51135U 22005AH  24071.15029400  .00000570  00000-0  53890-4 0  9990,2 51135  53.2185 329.6343 0001322  98.7083 261.4059 15.08842072119863,6917.874,95.437,540.654,538.825,0.0
51135.0,STARLINK-3363,PAYLOAD,2024-03-11 09:57:57,15.0884811,0.0001356,53.2194,328.445,96.0804,264.0343,0.00010208,1.337e-05,0.0,0 STARLINK-3363,1 51135U 22005AH  24071.41524863  .00001337  00000-0  10208-3 0  9999,2 51135  53.2194 328.4450 0001356  96.0804 264.0343 15.08848110118782,6917.856,95.437,540.659,538.783,0.0
51135.0,STARLINK-3363,PAYLOAD,2024-03-12 09:48:45,15.08847079,4.12e-05,53.2197,323.9842,50.4971,309.6058,-0.00017994,-3.151e-05,0.0,0 STARLINK-3363,1 51135U 22005AH  24072.40885540 -.00003151  00000-0 -17994-3 0  9998,2 51135  53.2197 323.9842 0000412  50.4971 309.6058 15.08847079120056,6917.859,95.437,540.009,539.439,0.0
51135.0,STARLINK-3363,PAYLOAD,2024-03-13 01:42:37,15.08832042,0.0001344,53.2184,321.0105,89.7437,270.3709,6.3664e-05,7.25e-06,0.0,0 STARLINK-3363,1 51135U 22005AH  24073.07126418  .00000725  00000-0  63664-4 0  9992,2 51135  53.2184 321.0105 0001344  89.7437 270.3709 15.08832042120152,6917.905,95.438,540.699,538.84,0.0
51135.0,STARLINK-3363,PAYLOAD,2024-03-13 09:39:31,15.08847421,0.0001343,53.2175,319.5215,85.6559,274.4587,8.4961e-05,1.065e-05,0.0,0 STARLINK-3363,1 51135U 22005AH  24073.40245281  .00001065  00000-0  84961-4 0  9990,2 51135  53.2175 319.5215 0001343  85.6559 274.4587 15.08847421120207,6917.858,95.437,540.652,538.794,0.0
51135.0,STARLINK-3363,PAYLOAD,2024-03-13 22:22:37,15.08840108,0.0001354,53.2192,317.1389,93.1025,267.0122,4.2939e-05,3.96e-06,0.0,0 STARLINK-3363,1 51135U 22005AH  24073.93238007  .00000396  00000-0  42939-4 0  9991,2 51135  53.2192 317.1389 0001354  93.1025 267.0122 15.08840108119167,6917.88,95.438,540.682,538.808,0.0
51135.0,STARLINK-3363,PAYLOAD,2024-03-14 01:33:23,15.08837479,0.0001357,53.2192,316.5454,93.2939,266.8208,0.000132,1.813e-05,0.0,0 STARLINK-3363,1 51135U 22005AH  24074.06485843  .00001813  00000-0  13200-3 0  9991,2 51135  53.2192 316.5454 0001357  93.2939 266.8208 15.08837479120308,6917.888,95.438,540.692,538.814,0.0
51135.0,STARLINK-3363,PAYLOAD,2024-03-14 09:30:18,15.0884527,0.0001351,53.2187,315.0612,91.7424,268.3723,0.00018801,2.706e-05,0.0,0 STARLINK-3363,1 51135U 22005AH  24074.39605281  .00002706  00000-0  18801-3 0  9991,2 51135  53.2187 315.0612 0001351  91.7424 268.3723 15.08845270120350,6917.864,95.437,540.664,538.795,0.0
51135.0,STARLINK-3363,PAYLOAD,2024-03-14 20:38:01,15.08836483,0.0001267,53.2184,312.9772,113.6153,246.4973,9.2306e-05,1.181e-05,0.0,0 STARLINK-3363,1 51135U 22005AH  24074.85974027  .00001181  00000-0  92306-4 0  9998,2 51135  53.2184 312.9772 0001267 113.6153 246.4973 15.08836483120427,6917.891,95.438,540.633,538.88,0.0
51135.0,STARLINK-3363,PAYLOAD,2024-03-14 22:13:24,15.0884288,0.0001377,53.2183,312.6808,108.2733,251.8409,1.8016e-05,-1e-08,0.0,0 STARLINK-3363,1 51135U 22005AH  24074.92597926 -.00000001  00000-0  18016-4 0  9992,2 51135  53.2183 312.6808 0001377 108.2733 251.8409 15.08842880119317,6917.872,95.437,540.689,538.784,0.0
51135.0,STARLINK-3363,PAYLOAD,2024-03-15 22:04:11,15.08852921,0.000176,53.219,308.2188,131.3507,228.7637,-4.4051e-05,-9.89e-06,0.0,0 STARLINK-3363,1 51135U 22005AH  24075.91957316 -.00000989  00000-0 -44051-4 0  9999,2 51135  53.2190 308.2188 0001760 131.3507 228.7637 15.08852921119468,6917.841,95.437,540.923,538.488,0.0
51135.0,STARLINK-3363,PAYLOAD,2024-03-16 20:19:35,15.08837727,0.0001409,53.2174,304.057,115.1983,244.9155,6.9977e-05,8.26e-06,0.0,0 STARLINK-3363,1 51135U 22005AH  24076.84693947  .00000826  00000-0  69977-4 0  9991,2 51135  53.2174 304.0570 0001409 115.1983 244.9155 15.08837727120720,6917.887,95.438,540.727,538.778,0.0
51135.0,STARLINK-3363,PAYLOAD,2024-03-16 21:54:58,15.08839169,0.0001339,53.2171,303.7604,110.732,249.3815,4.9076e-05,4.93e-06,0.0,0 STARLINK-3363,1 51135U 22005AH  24076.91317935  .00000493  00000-0  49076-4 0  9997,2 51135  53.2171 303.7604 0001339 110.7320 249.3815 15.08839169119619,6917.883,95.438,540.674,538.822,0.0
51135.0,STARLINK-3363,PAYLOAD,2024-03-17 01:05:44,15.08839408,0.0001316,53.217,303.1653,108.7568,251.3567,4.9137e-05,4.94e-06,0.0,0 STARLINK-3363,1 51135U 22005AH  24077.04565921  .00000494  00000-0  49137-4 0  9991,2 51135  53.2170 303.1653 0001316 108.7568 251.3567 15.08839408119637,6917.882,95.438,540.658,538.837,0.0
51135.0,STARLINK-3363,PAYLOAD,2024-03-17 20:10:22,15.08839118,0.0001348,53.2172,299.5965,105.4128,254.7013,3.3401e-05,2.44e-06,0.0,0 STARLINK-3363,1 51135U 22005AH  24077.84054025  .00000244  00000-0  33401-4 0  9997,2 51135  53.2172 299.5965 0001348 105.4128 254.7013 15.08839118119758,6917.883,95.438,540.681,538.816,0.0
51135.0,STARLINK-3363,PAYLOAD,2024-03-18 00:56:32,15.08839633,0.0001354,53.2172,298.7044,105.6699,254.4442,3.5035e-05,2.7e-06,0.0,0 STARLINK-3363,1 51135U 22005AH  24078.03925993  .00000270  00000-0  35035-4 0  9994,2 51135  53.2172 298.7044 0001354 105.6699 254.4442 15.08839633120903,6917.882,95.438,540.683,538.81,0.0
51135.0,STARLINK-3363,PAYLOAD,2024-03-18 21:36:33,15.08836195,0.0001287,53.2171,294.8382,98.3349,261.7789,5.3456e-05,5.63e-06,0.0,0 STARLINK-3363,1 51135U 22005AH  24078.90038350  .00000563  00000-0  53456-4 0  9994,2 51135  53.2171 294.8382 0001287  98.3349 261.7789 15.08836195119913,6917.892,95.438,540.647,538.867,0.0
51135.0,STARLINK-3363,PAYLOAD,2024-03-19 00:47:19,15.0883658,0.0001294,53.2171,294.2434,99.4978,260.616,5.3878e-05,5.7e-06,0.0,0 STARLINK-3363,1 51135U 22005AH  24079.03286350  .00000570  00000-0  53878-4 0  9990,2 51135  53.2171 294.2434 0001294  99.4978 260.6160 15.08836580119934,6917.891,95.438,540.651,538.861,0.0
51135.0,STARLINK-3363,PAYLOAD,2024-03-19 21:27:19,15.08844979,0.00013,53.2171,290.3774,81.8886,278.2254,0.00011614,1.561e-05,0.0,0 STARLINK-3363,1 51135U 22005AH  24079.89397837  .00001561  00000-0  11614-3 0  9999,2 51135  53.2171 290.3774 0001300  81.8886 278.2254 15.08844979121189,6917.865,95.437,540.629,538.831,0.0
51135.0,STARLINK-3363,PAYLOAD,2024-03-20 13:21:11,15.08842307,0.0001413,53.2171,287.4089,67.3706,292.7436,0.00012299,1.67e-05,0.0,0 STARLINK-3363,1 51135U 22005AH  24080.55638111  .00001670  00000-0  12299-3 0  9998,2 51135  53.2171 287.4089 0001413  67.3706 292.7436 15.08842307120163,6917.873,95.437,540.716,538.761,0.0
51135.0,STARLINK-3363,PAYLOAD,2024-03-20 21:18:07,15.08837387,0.0001344,53.2167,285.9179,72.6904,287.4235,2.2144e-05,6.5e-07,0.0,0 STARLINK-3363,1 51135U 22005AH  24080.88758732  .00000065  00000-0  22144-4 0  9994,2 51135  53.2167 285.9179 0001344  72.6904 287.4235 15.08837387121333,6917.888,95.438,540.683,538.824,0.0
51135.0,STARLINK-3363,PAYLOAD,2024-03-21 13:11:58,15.08846563,0.0001294,53.2162,282.9443,96.9342,263.1798,-0.00011722,-2.153e-05,0.0,0 STARLINK-3363,1 51135U 22005AH  24081.54998374 -.00002153  00000-0 -11722-3 0  9997,2 51135  53.2162 282.9443 0001294  96.9342 263.1798 15.08846563120316,6917.86,95.437,540.62,538.83,0.0
51135.0,STARLINK-3363,PAYLOAD,2024-03-21 19:33:30,15.08845825,0.0001188,53.2158,281.7562,89.7183,270.3945,2.9444e-05,1.81e-06,0.0,0 STARLINK-3363,1 51135U 22005AH  24081.81494160  .00000181  00000-0  29444-4 0  9999,2 51135  53.2158 281.7562 0001188  89.7183 270.3945 15.08845825121477,6917.863,95.437,540.549,538.906,0.0
51135.0,STARLINK-3363,PAYLOAD,2024-03-22 13:02:45,15.08838445,0.0001268,53.2155,278.4851,82.0148,278.0988,0.00012908,1.767e-05,0.0,0 STARLINK-3363,1 51135U 22005AH  24082.54358334  .00001767  00000-0  12908-3 0  9999,2 51135  53.2155 278.4851 0001268  82.0148 278.0988 15.08838445121588,6917.885,95.438,540.627,538.873,0.0
